STARLINK-30972          
1 58721U 24002S   26068.73541095 -.00000025  00000+0  11308-4 0  9991
2 58721  53.1593 229.6261 0001879  93.8971 266.2245 15.30196348122025
FLOCK 4G-5              
1 62663U 25009BG  26068.45638436  .00011278  00000+0  40688-3 0  9997
2 62663  97.4058 151.2478 0002094 314.5072  45.5996 15.28679529 63699
